start=new Date('2021-12-31T00:00:00.000Z').valueOf();
sats=[{"CLASSIFICATION_TYPE":"U","SEMIMAJOR_AXIS":"6925.352","INCLINATION":"53.0568","EPHEMERIS_TYPE":"0","MEAN_ELEMENT_THEORY":"SGP4","ECCENTRICITY":"0.00014490","OBJECT_TYPE":"PAYLOAD","TLE_LINE2":"2 48374  53.0568  21.0877 0001449  67.1445 292.9697 15.06398845 36524","SITE":"AFETR","RA_OF_ASC_NODE":"21.0877","ELEMENT_SET_NO":"999","REF_FRAME":"TEME","OBJECT_NAME":"STARLINK-2604","OBJECT_ID":"2021-038X","NORAD_CAT_ID":"48374","EPOCH":"2021-12-30T11:01:09.941376","GP_ID":"192769824","MEAN_MOTION_DDOT":"0.0000000000000","ARG_OF_PERICENTER":"67.1445","DECAY_DATE":null,"TIME_SYSTEM":"UTC","TLE_LINE1":"1 48374U 21038X   21364.45914284 -.00000209  00000-0  48906-5 0  9997","MEAN_MOTION":"15.06398845","CENTER_NAME":"EARTH","COUNTRY_CODE":"US","PERIOD":"95.592","PERIAPSIS":"546.214","MEAN_MOTION_DOT":"-0.00000209","BSTAR":"0.00000489060000","RCS_SIZE":"LARGE","REV_AT_EPOCH":"3652","FILE":"3255239","MEAN_ANOMALY":"292.9697","APOAPSIS":"548.221","LAUNCH_DATE":"2021-05-04"},{"NORAD_CAT_ID":"48375","EPOCH":"2021-12-30T10:55:51.581568","GP_ID":"192770567","MEAN_MOTION_DDOT":"0.0000000000000","ARG_OF_PERICENTER":"71.6908","MEAN_MOTION":"15.06397904","CENTER_NAME":"EARTH","COUNTRY_CODE":"US","PERIOD":"95.592","DECAY_DATE":null,"TIME_SYSTEM":"UTC","TLE_LINE1":"1 48375U 21038Y   21364.45545812  .00002177  00000-0  16498-3 0  9999","FILE":"3255239","MEAN_ANOMALY":"288.4235","APOAPSIS":"548.203","LAUNCH_DATE":"2021-05-04","PERIAPSIS":"546.237","MEAN_MOTION_DOT":"0.00002177","BSTAR":"0.00016498000000","RCS_SIZE":"LARGE","REV_AT_EPOCH":"3652","CLASSIFICATION_TYPE":"U","SEMIMAJOR_AXIS":"6925.355","INCLINATION":"53.0551","EPHEMERIS_TYPE":"0","MEAN_ELEMENT_THEORY":"SGP4","ECCENTRICITY":"0.00014190","TLE_LINE2":"2 48375  53.0551  21.1141 0001419  71.6908 288.4235 15.06397904 36526","OBJECT_TYPE":"PAYLOAD","SITE":"AFETR","OBJECT_NAME":"STARLINK-2603","OBJECT_ID":"2021-038Y","RA_OF_ASC_NODE":"21.1141","ELEMENT_SET_NO":"999","REF_FRAME":"TEME"},{"NORAD_CAT_ID":"48376","EPOCH":"2021-12-30T09:15:00.874656","GP_ID":"192769322","MEAN_MOTION_DDOT":"0.0000000000000","ARG_OF_PERICENTER":"67.2431","MEAN_MOTION":"15.06391106","COUNTRY_CODE":"US","PERIOD":"95.593","CENTER_NAME":"EARTH","DECAY_DATE":null,"TLE_LINE1":"1 48376U 21038Z   21364.38542679 -.00000072  00000-0  14040-4 0  9995","TIME_SYSTEM":"UTC","FILE":"3255239","MEAN_ANOMALY":"292.8719","APOAPSIS":"548.297","LAUNCH_DATE":"2021-05-04","PERIAPSIS":"546.185","MEAN_MOTION_DOT":"-0.00000072","BSTAR":"0.00001404000000","RCS_SIZE":"LARGE","REV_AT_EPOCH":"3651","CLASSIFICATION_TYPE":"U","SEMIMAJOR_AXIS":"6925.376","INCLINATION":"53.0561","EPHEMERIS_TYPE":"0","MEAN_ELEMENT_THEORY":"SGP4","ECCENTRICITY":"0.00015250","TLE_LINE2":"2 48376  53.0561  21.4322 0001525  67.2431 292.8719 15.06391106 36515","OBJECT_TYPE":"PAYLOAD","SITE":"AFETR","OBJECT_NAME":"STARLINK-2610","OBJECT_ID":"2021-038Z","RA_OF_ASC_NODE":"21.4322","REF_FRAME":"TEME","ELEMENT_SET_NO":"999"},{"PERIAPSIS":"546.215","MEAN_MOTION_DOT":"-0.00000073","BSTAR":"0.00001400300000","RCS_SIZE":"LARGE","REV_AT_EPOCH":"3659","FILE":"3255240","MEAN_ANOMALY":"285.0924","APOAPSIS":"548.205","LAUNCH_DATE":"2021-05-04","DECAY_DATE":null,"TIME_SYSTEM":"UTC","TLE_LINE1":"1 48377U 21038AA  21364.91251057 -.00000073  00000-0  14003-4 0  9992","MEAN_MOTION":"15.06401255","CENTER_NAME":"EARTH","COUNTRY_CODE":"US","PERIOD":"95.592","NORAD_CAT_ID":"48377","EPOCH":"2021-12-30T21:54:00.913248","MEAN_MOTION_DDOT":"0.0000000000000","GP_ID":"192794524","ARG_OF_PERICENTER":"75.0224","RA_OF_ASC_NODE":"19.0554","REF_FRAME":"TEME","ELEMENT_SET_NO":"999","OBJECT_NAME":"STARLINK-2499","OBJECT_ID":"2021-038AA","TLE_LINE2":"2 48377  53.0568  19.0554 0001437  75.0224 285.0924 15.06401255 36599","OBJECT_TYPE":"PAYLOAD","SITE":"AFETR","EPHEMERIS_TYPE":"0","MEAN_ELEMENT_THEORY":"SGP4","ECCENTRICITY":"0.00014370","CLASSIFICATION_TYPE":"U","SEMIMAJOR_AXIS":"6925.345","INCLINATION":"53.0568"},{"LAUNCH_DATE":"2021-05-04","APOAPSIS":"548.266","MEAN_ANOMALY":"278.9055","FILE":"3255239","REV_AT_EPOCH":"3652","RCS_SIZE":"LARGE","BSTAR":"0.00004428400000","PERIAPSIS":"546.195","MEAN_MOTION_DOT":"0.00000378","ARG_OF_PERICENTER":"81.2103","GP_ID":"192770324","MEAN_MOTION_DDOT":"0.0000000000000","EPOCH":"2021-12-30T10:39:56.384640","NORAD_CAT_ID":"48378","CENTER_NAME":"EARTH","COUNTRY_CODE":"US","PERIOD":"95.592","MEAN_MOTION":"15.06394574","TIME_SYSTEM":"UTC","TLE_LINE1":"1 48378U 21038AB  21364.44440260  .00000378  00000-0  44284-4 0  9998","DECAY_DATE":null,"SITE":"AFETR","TLE_LINE2":"2 48378  53.0547  21.1663 0001495  81.2103 278.9055 15.06394574 36525","OBJECT_TYPE":"PAYLOAD","OBJECT_ID":"2021-038AB","OBJECT_NAME":"STARLINK-2526","REF_FRAME":"TEME","ELEMENT_SET_NO":"999","RA_OF_ASC_NODE":"21.1663","INCLINATION":"53.0547","SEMIMAJOR_AXIS":"6925.365","CLASSIFICATION_TYPE":"U","ECCENTRICITY":"0.00014950","MEAN_ELEMENT_THEORY":"SGP4","EPHEMERIS_TYPE":"0"},{"EPHEMERIS_TYPE":"0","MEAN_ELEMENT_THEORY":"SGP4","ECCENTRICITY":"0.00014070","CLASSIFICATION_TYPE":"U","SEMIMAJOR_AXIS":"6925.372","INCLINATION":"53.0558","RA_OF_ASC_NODE":"21.1768","ELEMENT_SET_NO":"999","REF_FRAME":"TEME","OBJECT_NAME":"STARLINK-2612","OBJECT_ID":"2021-038AC","OBJECT_TYPE":"PAYLOAD","TLE_LINE2":"2 48379  53.0558  21.1768 0001407  75.2102 284.9043 15.06392256 36528","SITE":"AFETR","DECAY_DATE":null,"TLE_LINE1":"1 48379U 21038AC  21364.44071868  .00001949  00000-0  14972-3 0  9998","TIME_SYSTEM":"UTC","MEAN_MOTION":"15.06392256","COUNTRY_CODE":"US","CENTER_NAME":"EARTH","PERIOD":"95.593","NORAD_CAT_ID":"48379","EPOCH":"2021-12-30T10:34:38.093952","GP_ID":"192770068","MEAN_MOTION_DDOT":"0.0000000000000","ARG_OF_PERICENTER":"75.2102","MEAN_MOTION_DOT":"0.00001949","PERIAPSIS":"546.263","BSTAR":"0.00014972000000","RCS_SIZE":"MEDIUM","REV_AT_EPOCH":"3652","FILE":"3255239","MEAN_ANOMALY":"284.9043","APOAPSIS":"548.212","LAUNCH_DATE":"2021-05-04"},{"ECCENTRICITY":"0.00014290","MEAN_ELEMENT_THEORY":"SGP4","EPHEMERIS_TYPE":"0","INCLINATION":"53.0559","SEMIMAJOR_AXIS":"6925.328","CLASSIFICATION_TYPE":"U","OBJECT_ID":"2021-038AD","OBJECT_NAME":"STARLINK-2614","ELEMENT_SET_NO":"999","REF_FRAME":"TEME","RA_OF_ASC_NODE":"21.0589","SITE":"AFETR","OBJECT_TYPE":"PAYLOAD","TLE_LINE2":"2 48380  53.0559  21.0589 0001429  78.1307 281.9842 15.06406775 36520","COUNTRY_CODE":"US","PERIOD":"95.592","CENTER_NAME":"EARTH","MEAN_MOTION":"15.06406775","TIME_SYSTEM":"UTC","TLE_LINE1":"1 48380U 21038AD  21364.46557024  .00004856  00000-0  34460-3 0  9999","DECAY_DATE":null,"ARG_OF_PERICENTER":"78.1307","GP_ID":"192768823","MEAN_MOTION_DDOT":"0.0000000000000","EPOCH":"2021-12-30T11:10:25.268736","NORAD_CAT_ID":"48380","LAUNCH_DATE":"2021-05-04","APOAPSIS":"548.182","MEAN_ANOMALY":"281.9842","FILE":"3255239","REV_AT_EPOCH":"3652","RCS_SIZE":"LARGE","BSTAR":"0.00034460000000","MEAN_MOTION_DOT":"0.00004856","PERIAPSIS":"546.203"},{"EPHEMERIS_TYPE":"0","MEAN_ELEMENT_THEORY":"SGP4","ECCENTRICITY":"0.00016580","CLASSIFICATION_TYPE":"U","SEMIMAJOR_AXIS":"6925.365","INCLINATION":"53.0542","RA_OF_ASC_NODE":"21.1997","ELEMENT_SET_NO":"999","REF_FRAME":"TEME","OBJECT_NAME":"STARLINK-2630","OBJECT_ID":"2021-038AE","OBJECT_TYPE":"PAYLOAD","TLE_LINE2":"2 48381  53.0542  21.1997 0001658  68.2294 291.8871 15.06394643 36528","SITE":"AFETR","DECAY_DATE":null,"TLE_LINE1":"1 48381U 21038AE  21364.43702711 -.00000442  00000-0 -10802-4 0  9996","TIME_SYSTEM":"UTC","MEAN_MOTION":"15.06394643","COUNTRY_CODE":"US","CENTER_NAME":"EARTH","PERIOD":"95.592","NORAD_CAT_ID":"48381","EPOCH":"2021-12-30T10:29:19.142304","MEAN_MOTION_DDOT":"0.0000000000000","GP_ID":"192769073","ARG_OF_PERICENTER":"68.2294","PERIAPSIS":"546.082","MEAN_MOTION_DOT":"-0.00000442","BSTAR":"-0.00001080200000","RCS_SIZE":"LARGE","REV_AT_EPOCH":"3652","FILE":"3255239","MEAN_ANOMALY":"291.8871","APOAPSIS":"548.378","LAUNCH_DATE":"2021-05-04"},{"APOAPSIS":"548.359","LAUNCH_DATE":"2021-05-04","FILE":"3255239","MEAN_ANOMALY":"300.0778","RCS_SIZE":"LARGE","REV_AT_EPOCH":"3652","PERIAPSIS":"546.089","MEAN_MOTION_DOT":"0.00001701","BSTAR":"0.00013307000000","MEAN_MOTION_DDOT":"0.0000000000000","GP_ID":"192769825","ARG_OF_PERICENTER":"60.0374","NORAD_CAT_ID":"48382","EPOCH":"2021-12-30T10:24:00.923328","MEAN_MOTION":"15.06396544","CENTER_NAME":"EARTH","COUNTRY_CODE":"US","PERIOD":"95.592","TIME_SYSTEM":"UTC","TLE_LINE1":"1 48382U 21038AF  21364.43334402  .00001701  00000-0  13307-3 0  9994","DECAY_DATE":null,"OBJECT_TYPE":"PAYLOAD","TLE_LINE2":"2 48382  53.0558  21.2047 0001639  60.0374 300.0778 15.06396544 36522","SITE":"AFETR","OBJECT_ID":"2021-038AF","OBJECT_NAME":"STARLINK-2585","REF_FRAME":"TEME","ELEMENT_SET_NO":"999","RA_OF_ASC_NODE":"21.2047","SEMIMAJOR_AXIS":"6925.359","INCLINATION":"53.0558","CLASSIFICATION_TYPE":"U","MEAN_ELEMENT_THEORY":"SGP4","ECCENTRICITY":"0.00016390","EPHEMERIS_TYPE":"0"},{"MEAN_MOTION":"15.06442024","COUNTRY_CODE":"US","PERIOD":"95.589","CENTER_NAME":"EARTH","TIME_SYSTEM":"UTC","TLE_LINE1":"1 48383U 21038AG  21364.56231412 -.00032575  00000-0 -21756-2 0  9997","DECAY_DATE":null,"GP_ID":"192770568","MEAN_MOTION_DDOT":"0.0000000000000","ARG_OF_PERICENTER":"358.6635","NORAD_CAT_ID":"48383","EPOCH":"2021-12-30T13:29:43.939968","APOAPSIS":"547.612","LAUNCH_DATE":"2021-05-04","FILE":"3255239","MEAN_ANOMALY":"1.4351","RCS_SIZE":"LARGE","REV_AT_EPOCH":"3776","MEAN_MOTION_DOT":"-0.00032575","PERIAPSIS":"546.557","BSTAR":"-0.00217560000000","MEAN_ELEMENT_THEORY":"SGP4","ECCENTRICITY":"0.00007620","EPHEMERIS_TYPE":"0","SEMIMAJOR_AXIS":"6925.220","INCLINATION":"53.0545","CLASSIFICATION_TYPE":"U","OBJECT_ID":"2021-038AG","OBJECT_NAME":"STARLINK-2599","ELEMENT_SET_NO":"999","REF_FRAME":"TEME","RA_OF_ASC_NODE":"20.6148","OBJECT_TYPE":"PAYLOAD","TLE_LINE2":"2 48383  53.0545  20.6148 0000762 358.6635   1.4351 15.06442024 37767","SITE":"AFETR"}];
